[
    {
        "Altitude(m)": 567684.3764381871,
        "Argument of Periapsis(deg)": 0.013245982221427002,
        "Eccentricity": 0.0,
        "Inclination(deg)": 53.0,
        "Latitude(deg)": -42.818314713555715,
        "Longitude(deg)": 69.4413408352804,
        "Mean Anomaly(deg)": -57.99861426484489,
        "RAAN(deg)": 214.98028673705605,
        "Satellite Name": "Starlink Shell 1 963",
        "Satellite Number": 963,
        "Semi-Major Axis(m)": 6931778.249405717,
        "Time(s)": 380
    },
    {
        "Altitude(m)": 567534.8167928754,
        "Argument of Periapsis(deg)": 0.013594560700938237,
        "Eccentricity": 0.0,
        "Inclination(deg)": 53.0,
        "Latitude(deg)": -42.45625116663173,
        "Longitude(deg)": 70.0918237182327,
        "Mean Anomaly(deg)": -57.37178306128814,
        "RAAN(deg)": 214.97976796697859,
        "Satellite Name": "Starlink Shell 1 963",
        "Satellite Number": 963,
        "Semi-Major Axis(m)": 6931778.249405717,
        "Time(s)": 390
    },
    {
        "Altitude(m)": 567383.4812385591,
        "Argument of Periapsis(deg)": 0.013943139180449475,
        "Eccentricity": 0.0,
        "Inclination(deg)": 53.0,
        "Latitude(deg)": -42.090030417278086,
        "Longitude(deg)": 70.73435863212481,
        "Mean Anomaly(deg)": -56.74495185773147,
        "RAAN(deg)": 214.9792491969011,
        "Satellite Name": "Starlink Shell 1 963",
        "Satellite Number": 963,
        "Semi-Major Axis(m)": 6931778.249405717,
        "Time(s)": 400
    },
    {
        "Altitude(m)": 567230.4290312227,
        "Argument of Periapsis(deg)": 0.014291717659960712,
        "Eccentricity": 0.0,
        "Inclination(deg)": 53.0,
        "Latitude(deg)": -41.71975064870322,
        "Longitude(deg)": 71.36905052026665,
        "Mean Anomaly(deg)": -56.118120654174724,
        "RAAN(deg)": 214.97873042682363,
        "Satellite Name": "Starlink Shell 1 963",
        "Satellite Number": 963,
        "Semi-Major Axis(m)": 6931778.249405717,
        "Time(s)": 410
    },
    {
        "Altitude(m)": 567075.7200453165,
        "Argument of Periapsis(deg)": 0.014640296139471948,
        "Eccentricity": 0.0,
        "Inclination(deg)": 53.0,
        "Latitude(deg)": -41.345508219296924,
        "Longitude(deg)": 71.9960064949315,
        "Mean Anomaly(deg)": -55.49128945061795,
        "RAAN(deg)": 214.97821165674614,
        "Satellite Name": "Starlink Shell 1 963",
        "Satellite Number": 963,
        "Semi-Major Axis(m)": 6931778.249405717,
        "Time(s)": 420
    },
    {
        "Altitude(m)": 566919.4147472809,
        "Argument of Periapsis(deg)": 0.014988874618983185,
        "Eccentricity": 0.0,
        "Inclination(deg)": 53.0,
        "Latitude(deg)": -40.96739765625585,
        "Longitude(deg)": 72.6153360206732,
        "Mean Anomaly(deg)": -54.86445824706128,
        "RAAN(deg)": 214.97769288666868,
        "Satellite Name": "Starlink Shell 1 963",
        "Satellite Number": 963,
        "Semi-Major Axis(m)": 6931778.249405717,
        "Time(s)": 430
    },
    {
        "Altitude(m)": 566761.5741688386,
        "Argument of Periapsis(deg)": 0.015337453098494424,
        "Eccentricity": 0.0,
        "Inclination(deg)": 53.0,
        "Latitude(deg)": -40.58551165360886,
        "Longitude(deg)": 73.22715111542522,
        "Mean Anomaly(deg)": -54.23762704350453,
        "RAAN(deg)": 214.9771741165912,
        "Satellite Name": "Starlink Shell 1 963",
        "Satellite Number": 963,
        "Semi-Major Axis(m)": 6931778.249405717,
        "Time(s)": 440
    },
    {
        "Altitude(m)": 566602.2598799668,
        "Argument of Periapsis(deg)": 0.01568603157800566,
        "Eccentricity": 0.0,
        "Inclination(deg)": 53.0,
        "Latitude(deg)": -40.199941074294884,
        "Longitude(deg)": 73.83156505617619,
        "Mean Anomaly(deg)": -53.610795839947784,
        "RAAN(deg)": 214.97665534651372,
        "Satellite Name": "Starlink Shell 1 963",
        "Satellite Number": 963,
        "Semi-Major Axis(m)": 6931778.249405717,
        "Time(s)": 450
    },
    {
        "Altitude(m)": 566441.5339616538,
        "Argument of Periapsis(deg)": 0.0160346100575169,
        "Eccentricity": 0.0,
        "Inclination(deg)": 53.0,
        "Latitude(deg)": -39.81077495595441,
        "Longitude(deg)": 74.4286926145694,
        "Mean Anomaly(deg)": -52.983964636391114,
        "RAAN(deg)": 214.97613657643623,
        "Satellite Name": "Starlink Shell 1 963",
        "Satellite Number": 963,
        "Semi-Major Axis(m)": 6931778.249405717,
        "Time(s)": 460
    },
    {
        "Altitude(m)": 566279.458978368,
        "Argument of Periapsis(deg)": 0.016383188537028134,
        "Eccentricity": 0.0,
        "Inclination(deg)": 53.0,
        "Latitude(deg)": -39.41810052011678,
        "Longitude(deg)": 75.01865030910444,
        "Mean Anomaly(deg)": -52.357133432834345,
        "RAAN(deg)": 214.97561780635877,
        "Satellite Name": "Starlink Shell 1 963",
        "Satellite Number": 963,
        "Semi-Major Axis(m)": 6931778.249405717,
        "Time(s)": 470
    },
    {
        "Altitude(m)": 566116.0979503676,
        "Argument of Periapsis(deg)": 0.01673176701653937,
        "Eccentricity": 0.0,
        "Inclination(deg)": 53.0,
        "Latitude(deg)": -39.022003184480106,
        "Longitude(deg)": 75.60155516057662,
        "Mean Anomaly(deg)": -51.7303022292777,
        "RAAN(deg)": 214.97509903628134,
        "Satellite Name": "Starlink Shell 1 963",
        "Satellite Number": 963,
        "Semi-Major Axis(m)": 6931778.249405717,
        "Time(s)": 480
    },
    {
        "Altitude(m)": 565951.5143256935,
        "Argument of Periapsis(deg)": 0.017080345496050607,
        "Eccentricity": 0.0,
        "Inclination(deg)": 53.0,
        "Latitude(deg)": -38.62256657799148,
        "Longitude(deg)": 76.17752497597046,
        "Mean Anomaly(deg)": -51.10347102572093,
        "RAAN(deg)": 214.97458026620384,
        "Satellite Name": "Starlink Shell 1 963",
        "Satellite Number": 963,
        "Semi-Major Axis(m)": 6931778.249405717,
        "Time(s)": 490
    },
    {
        "Altitude(m)": 565785.7719520377,
        "Argument of Periapsis(deg)": 0.017428923975561842,
        "Eccentricity": 0.0,
        "Inclination(deg)": 53.0,
        "Latitude(deg)": -38.21987255845729,
        "Longitude(deg)": 76.74667864737827,
        "Mean Anomaly(deg)": -50.47663982216428,
        "RAAN(deg)": 214.97406149612638,
        "Satellite Name": "Starlink Shell 1 963",
        "Satellite Number": 963,
        "Semi-Major Axis(m)": 6931778.249405717,
        "Time(s)": 500
    },
    {
        "Altitude(m)": 565618.9350483797,
        "Argument of Periapsis(deg)": 0.01777750245507308,
        "Eccentricity": 0.0,
        "Inclination(deg)": 53.0,
        "Latitude(deg)": -37.81400123242446,
        "Longitude(deg)": 77.30913495250176,
        "Mean Anomaly(deg)": -49.84980861860763,
        "RAAN(deg)": 214.97354272604892,
        "Satellite Name": "Starlink Shell 1 963",
        "Satellite Number": 963,
        "Semi-Major Axis(m)": 6931778.249405717,
        "Time(s)": 510
    },
    {
        "Altitude(m)": 565451.0681764436,
        "Argument of Periapsis(deg)": 0.018126080934584315,
        "Eccentricity": 0.0,
        "Inclination(deg)": 53.0,
        "Latitude(deg)": -37.40503097709063,
        "Longitude(deg)": 77.86501288188654,
        "Mean Anomaly(deg)": -49.222977415050735,
        "RAAN(deg)": 214.97302395597143,
        "Satellite Name": "Starlink Shell 1 963",
        "Satellite Number": 963,
        "Semi-Major Axis(m)": 6931778.249405717,
        "Time(s)": 520
    },
    {
        "Altitude(m)": 565282.2362119803,
        "Argument of Periapsis(deg)": 0.018474659414095554,
        "Eccentricity": 0.0,
        "Inclination(deg)": 53.0,
        "Latitude(deg)": -36.993038464015534,
        "Longitude(deg)": 78.41443197942345,
        "Mean Anomaly(deg)": -48.5961462114941,
        "RAAN(deg)": 214.97250518589397,
        "Satellite Name": "Starlink Shell 1 963",
        "Satellite Number": 963,
        "Semi-Major Axis(m)": 6931778.249405717,
        "Time(s)": 530
    },
    {
        "Altitude(m)": 565112.5043159199,
        "Argument of Periapsis(deg)": 0.018823237893606792,
        "Eccentricity": 0.0,
        "Inclination(deg)": 53.0,
        "Latitude(deg)": -36.57809868442111,
        "Longitude(deg)": 78.95751118264712,
        "Mean Anomaly(deg)": -47.96931500793745,
        "RAAN(deg)": 214.97198641581647,
        "Satellite Name": "Starlink Shell 1 963",
        "Satellite Number": 963,
        "Semi-Major Axis(m)": 6931778.249405717,
        "Time(s)": 540
    },
    {
        "Altitude(m)": 564941.9379053434,
        "Argument of Periapsis(deg)": 0.019171816373118027,
        "Eccentricity": 0.0,
        "Inclination(deg)": 53.0,
        "Latitude(deg)": -36.160284975882,
        "Longitude(deg)": 79.49436918797143,
        "Mean Anomaly(deg)": -47.342483804380684,
        "RAAN(deg)": 214.97146764573898,
        "Satellite Name": "Starlink Shell 1 963",
        "Satellite Number": 963,
        "Semi-Major Axis(m)": 6931778.249405717,
        "Time(s)": 550
    },
    {
        "Altitude(m)": 564770.6026243502,
        "Argument of Periapsis(deg)": 0.019520394852629266,
        "Eccentricity": 0.0,
        "Inclination(deg)": 53.0,
        "Latitude(deg)": -35.73966905022113,
        "Longitude(deg)": 80.02512482739931,
        "Mean Anomaly(deg)": -46.71565260082394,
        "RAAN(deg)": 214.97094887566152,
        "Satellite Name": "Starlink Shell 1 963",
        "Satellite Number": 963,
        "Semi-Major Axis(m)": 6931778.249405717,
        "Time(s)": 560
    }
]